1 47699U 21015A 24269.44739128 .00000745 00000-0 24591-3 0 9995 
2 47699 98.3876 343.8568 0001363 74.0991 286.0348 14.40879062187961 
1 47699U 21015A 24269.86404535 .00000772 00000-0 25426-3 0 9990 
2 47699 98.3876 344.2655 0001358 73.7514 286,3825 14,40879771188022 
1 47699U 21015A 24270,21125683 .00000824 00000-0 27055-3 0 9993 
2 47699 98,3875 344,6060 0001352 73,4831 286,6507 14,40880579188071 
1 47699U 21015A 24270,21125683 .00000824 00000-0 27055-3 0 9993 
2 47699 98,3875 344,6060 0001352 73,4831 286,6507 14,40880579188071 
1 47699U 21015A 24271,46121750 .00000814 00000-0 26737-3 0 9997 
2 47699 98,3875 345,8320 0001309 72,9204 287,2128 14,40882302188255 
1 47699U 21015A 24271,46121750 .00000814 00000-0 26737-3 0 9997 
2 47699 98,3875 345,8320 0001309 72,9204 287,2128 14,40882302188255 
1 47699U 21015A 24272,50284963 .00000826 00000-0 27101-3 0 9998 
2 47699 98,3874 346,8535 0001317 73,0179 287,1155 14,40884108188407 
1 47699U 21015A 24272,50284963 .00000826 00000-0 27101-3 0 9998 
2 47699 98,3874 346,8535 0001317 73,0179 287,1155 14,40884108188407 
1 47699U 21015A 24272,91950192 .00000873 00000-0 28558-3 0 9996 
2 47699 98,3873 347,2622 0001295 72,5075 287,6255 14,40885109188466 
1 47699U 21015A 24273.47503821 .00000875 00000-0 28633-3 0 9997 
2 47699 98.3872 347.8070 0001277 72.3855 287.7473 14.40886098188542 
1 47699U 21015A 24273.75280586 .00000929 00000-0 30330-3 0 9995 
2 47699 98.3872 348.0794 0001265 72.1740 287.9586 14.40886999188587 
1 47699U 21015A 24273.75280586 .00000929 00000-0 30330-3 0 9995 
2 47699 98.3872 348.0794 0001265 72.1740 287.9586 14.40886999188587 
1 47699U 21015A 24274.23889939 .00001001 00000-0 32563-3 0 9998 
2 47699 98.3872 348.5562 0001268 72,2536 287,8791 14,40888322188659 
1 47699U 21015A 24274,79443453 .00000958 00000-0 31232-3 0 9998 
2 47699 98,3872 349,1010 0001266 72,3155 287,8172 14,40889160188733 
1 47699U 21015A 24274,79443453 .00000958 00000-0 31232-3 0 9998 
2 47699 98,3872 349,1010 0001266 72,3155 287,8172 14,40889160188733 
1 47699U 21015A 24275,48885227 .00001064 00000-0 34515-3 0 9990 
2 47699 98,3871 349,7821 0001231 72,1619 287,9705 14,40891217188833 
1 47699U 21015A 24275,76661923 .00001085 00000-0 35182-3 0 9990 
2 47699 98,3871 350,0545 0001211 71,9447 288,1874 14,40891930188871 
1 47699U 21015A 24276,18326874 .00001555 00000-0 49834-3 0 9991 
2 47699 98,3869 350,4630 0001191 71,3140 288,8178 14,40895536188935
1 47699U 21015A 24276,18326874 .00001555 00000-0 49834-3 0 9991 
2 47699 98,3869 350,4630 0001191 71,3140 288,8178 14,40895536188935 
1 47699U 21015A 24276,73880123 .00001558 00000-0 49919-3 0 9991 
2 47699 98,3869 351,0079 0001179 71,2737 288,8580 14,40897001189012 
1 47699U 21015A 24277,22489321 .00001668 00000-0 53337-3 0 9992 
2 47699 98,3868 351,4845 0001157 70,7160 289,4155 14,40898370189088 
1 47699U 21015A 24277,50265904 .00001687 00000-0 53930-3 0 9992 
2 47699 98,3867 351,7570 0001150 70,7166 289,4148 14,40899213189128 
1 47699U 21015A 24277,57210049 .00001694 00000-0 54158-3 0 9990 
2 47699 98,3867 351,8251 0001144 70,5728 289,5585 14,40899427189134 
1 47699U 21015A 24278,82210732 .00001666 00000-0 53363-3 0 9994 
2 47699 98,3868 353,0510 0001043 88,2292 271,9016 14,40829125189319 
1 47699U 21015A 24279,79433308 .00001745 00000-0 55821-3 0 9996 
2 47699 98,3864 354,0044 0001049 88,7038 271,4271 14,40832651189458 
1 47699U 21015A 24279,79433308 .00001745 00000-0 55821-3 0 9996 
2 47699 98,3864 354,0044 0001049 88,7038 271,4271 14,40832651189458 
1 47699U 21015A 24280,48877921 .00001666 00000-0 53355-3 0 9999 
2 47699 98,3863 354,6854 0001032 89,0438 271,0869 14,40833820189551 
1 47699U 21015A 24280,62766821 .00001662 00000-0 53221-3 0 9999 
2 47699 98,3864 354,8217 0001025 89,2048 270,9258 14,40834271189571 
1 47699U 21015A 24281,18322373 .00001650 00000-0 52852-3 0 9997 
2 47699 98,3862 355,3664 0000932 87,0150 273,1146 14.40836316189659 
1 47699U 21015A 24281.18322373 .00001650 00000-0 52852-3 0 9997 
2 47699 98.3862 355.3664 0000932 87.0150 273.1146 14.40836316189659 
1 47699U 21015A 24281.80822273 .00001625 00000-0 52076-3 0 9990 
2 47699 98.3862 355.9793 0000978 88,4700 271,6601 14,40838220189749 
1 47699U 21015A 24282,22488079 .00003389 00000-0 10706-2 0 9991 
2 47699 98,3862 356,3878 0000979 87,7219 272,4083 14,40851411189803 
1 47699U 21015A 24282,22488079 .00003389 00000-0 10706-2 0 9991 
2 47699 98,3862 356,3878 0000979 87,7219 272,4083 14,40851411189803